STARLINK-35851          
1 66356U 25254J   25337.91670139 -.02017342  00000+0 -26663-1 0  9994
2 66356  53.1592 318.8702 0001353 103.6631 143.3677 15.61207777  5508
STARLINK-35817          
1 66357U 25254K   25337.91670139 -.02017338  00000+0 -26664-1 0  9991
2 66357  53.1593 318.8660 0001294 106.2793 142.6696 15.61207392  5501
STARLINK-35807          
1 66358U 25254L   25337.91670139 -.02009204  00000+0 -26552-1 0  9991
2 66358  53.1595 318.8616 0001384 102.0739 148.8032 15.61195806  5507
STARLINK-35805          
1 66359U 25254M   25337.91670139 -.02010475  00000+0 -26570-1 0  9994
2 66359  53.1593 318.8580 0001283 108.1759 144.6163 15.61197769  5478
STARLINK-35823          
1 66360U 25254N   25337.91670139 -.02011034  00000+0 -26579-1 0  9997
2 66360  53.1594 318.8492 0001264 106.8495 149.7770 15.61197621  5505
STARLINK-35813          
1 66361U 25254P   25337.91670139 -.02019760  00000+0 -26699-1 0  9995
2 66361  53.1592 318.8541 0001304 107.8582 146.8413 15.61208304  5505
STARLINK-35822          
1 66362U 25254Q   25337.91670139 -.02007860  00000+0 -26533-1 0  9991
2 66362  53.1592 318.8419 0001377 102.0979 158.3630 15.61195299  5504
STARLINK-35806          
1 66363U 25254R   25337.91670139 -.02009679  00000+0 -26559-1 0  9990
2 66363  53.1592 318.8458 0001348 102.3368 156.2068 15.61196670  5473
STARLINK-35797          
1 66364U 25254S   25337.91670139 -.02014836  00000+0 -26636-1 0  9998
2 66364  53.1593 318.8374 0001262 105.8295 156.5500 15.61198741  5503
STARLINK-35827          
1 66365U 25254T   25337.91670139 -.02009429  00000+0 -26555-1 0  9991
2 66365  53.1594 318.8305 0001332 103.1354 163.0756 15.61196559  5471
STARLINK-35845          
1 66366U 25254U   25337.91670139 -.02003846  00000+0 -26475-1 0  9990
2 66366  53.1593 318.8336 0001102  95.2538 169.0365 15.61195328  5504
STARLINK-35846          
1 66367U 25254V   25337.91670139 -.02009438  00000+0 -26554-1 0  9992
2 66367  53.1594 318.8250 0001276 102.8665 165.2567 15.61198953  5452
STARLINK-34861          
1 66368U 25254W   25337.66610982  .00407720  00000+0  26422-2 0  9992
2 66368  53.1568 319.9202 0003380  68.1148 292.0231 15.74306107  4251
STARLINK-35795          
1 66369U 25254X   25337.66643925  .00130112  00000+0  87751-3 0  9997
2 66369  53.1571 319.9221 0001587  81.4352 278.6848 15.74228673  4254
STARLINK-35824          
1 66370U 25254Y   25337.53878215  .00181777  00000+0  12150-2 0  9990
2 66370  53.1573 320.5488 0001021 124.2766 235.8351 15.74262739  4232
STARLINK-35804          
1 66371U 25254Z   25337.53810663  .00196597  00000+0  13110-2 0  9997
2 66371  53.1569 320.5433 0001180 114.5410 245.5733 15.74270085  4237
STARLINK-35821          
1 66372U 25254AA  25337.41147329  .00157762  00000+0  10592-2 0  9999
2 66372  53.1572 321.1770 0001585  85.0456 275.0745 15.74238222  4210
STARLINK-35809          
1 66373U 25254AB  25337.79172208  .00506038  00000+0  32288-2 0  9995
2 66373  53.1567 319.2808 0001985 133.1249 226.9937 15.74386489  4277
STARLINK-35831          
1 66374U 25254AC  25337.79138403  .00502204  00000+0  32059-2 0  9992
2 66374  53.1567 319.2783 0001856 128.0941 232.0247 15.74385462  4271
STARLINK-35826          
1 66375U 25254AD  25337.91802256  .00379958  00000+0  24676-2 0  9995
2 66375  53.1566 318.6460 0001185 125.6153 234.4977 15.74337025  4299
STARLINK-35139          
1 66380U 25257A   25337.91670139 -.00046620  00000+0 -11616-2 0  9996
2 66380  53.1588 306.2273 0001259  92.7303  98.6755 15.39648246  5013
STARLINK-35158          
1 66381U 25257B   25337.91670139 -.00068449  00000+0 -17140-2 0  9998
2 66381  53.1588 306.2231 0001334  95.5265  97.7003 15.39665480  5071
STARLINK-35639          
1 66382U 25257C   25337.91670139 -.00092002  00000+0 -23145-2 0  9993
2 66382  53.1594 306.1739 0001417 108.9121 108.2336 15.39663845  5073
STARLINK-35690          
1 66383U 25257D   25337.91670139 -.00012800  00000+0 -31064-3 0  9992
2 66383  53.1597 306.1227 0001563 107.0415 135.8494 15.39610921  5075
STARLINK-35662          
1 66384U 25257E   25337.91670139 -.00074324  00000+0 -18625-2 0  9999
2 66384  53.1598 306.1199 0001580  99.6725 145.0392 15.39680663  5074
STARLINK-35659          
1 66385U 25257F   25337.91670139 -.00062299  00000+0 -15577-2 0  9991
2 66385  53.1594 306.1714 0001463 101.7333 117.2350 15.39668663  5075
STARLINK-35651          
1 66386U 25257G   25337.91670139 -.01425590  00000+0 -37964-1 0  9993
2 66386  53.1598 306.0728 0001696  76.1221 191.9927 15.40617073  5073
STARLINK-35661          
1 66387U 25257H   25337.91670139 -.01510912  00000+0 -40461-1 0  9993
2 66387  53.1597 306.0690 0001327  91.6350 178.3274 15.40632226  5078
STARLINK-35647          
1 66388U 25257J   25337.91670139 -.02025270  00000+0 -49722-1 0  9992
2 66388  53.1596 306.0333 0001562 103.4349 184.4625 15.43645387  5076
STARLINK-35694          
1 66389U 25257K   25337.41094860  .00018953  00000+0  34878-3 0  9993
2 66389  53.1590 308.4226 0001835 114.7525 245.3675 15.49244836  4938
STARLINK-35665          
1 66390U 25257L   25337.92083271  .00126894  00000+0  22495-2 0  9990
2 66390  53.1591 305.9128 0001313  91.1298 268.9861 15.49349961  5114
STARLINK-35656          
1 66391U 25257M   25337.91670139 -.00058930  00000+0 -14737-2 0  9992
2 66391  53.1601 305.9548 0001534  92.8644 227.3212 15.39638258  5175
STARLINK-35671          
1 66392U 25257N   25337.91670139 -.02022380  00000+0 -50511-1 0  9994
2 66392  53.1596 306.0255 0001537 105.7430 185.5184 15.43136510  5077
STARLINK-35652          
1 66393U 25257P   25337.86216093  .00144211  00000+0  25490-2 0  9997
2 66393  53.1591 306.2619 0001370  84.1138 276.0027 15.49357934  5005
STARLINK-35672          
1 66394U 25257Q   25337.86147569  .00152510  00000+0  26911-2 0  9999
2 66394  53.1591 306.2569 0001427 102.9892 257.1277 15.49371399  5007
STARLINK-35681          
1 66395U 25257R   25337.86113275  .00217676  00000+0  38009-2 0  9993
2 66395  53.1592 306.2550 0001082 105.6339 254.4790 15.49405175  4933
STARLINK-35669          
1 66396U 25257S   25337.79628146  .00143274  00000+0  25321-2 0  9999
2 66396  53.1589 306.5605 0001260  95.4481 264.6672 15.49365388  4995
STARLINK-35510          
1 66397U 25257T   25337.79593922  .00177876  00000+0  31270-2 0  9998
2 66397  53.1590 306.5586 0001103  81.5058 278.6076 15.49372590  4994
STARLINK-35642          
1 66398U 25257U   25337.79559536  .00154107  00000+0  27184-2 0  9993
2 66398  53.1591 306.5556 0001055  56.2590 303.8520 15.49373611  4999
STARLINK-35657          
1 66399U 25257V   25337.79525072  .00160623  00000+0  28306-2 0  9999
2 66399  53.1591 306.5535 0001268  97.2276 262.8878 15.49374318  4994
STARLINK-35667          
1 66400U 25257W   25337.73005531  .00057105  00000+0  10260-2 0  9999
2 66400  53.1593 306.8566 0001403  93.2804 266.8366 15.49345077  4985
STARLINK-35668          
1 66401U 25257X   25337.72971298  .00102420  00000+0  18227-2 0  9993
2 66401  53.1592 306.8547 0000976  87.9557 272.1564 15.49352848  4987
STARLINK-35644          
1 66402U 25257Y   25337.79490692  .00172578  00000+0  30346-2 0  9992
2 66402  53.1592 306.5508 0001156 101.7067 258.4072 15.49387406  4994
STARLINK-35602          
1 66403U 25257Z   25337.72936763  .00064718  00000+0  11603-2 0  9991
2 66403  53.1592 306.8522 0001458  90.2781 269.8395 15.49351127  4988
STARLINK-35691          
1 66404U 25257AA  25337.72902340  .00082424  00000+0  14718-2 0  9990
2 66404  53.1591 306.8493 0001323  90.5798 269.5363 15.49360237  4981
STARLINK-35683          
1 66405U 25257AB  25337.72868194  .00089837  00000+0  16024-2 0  9996
2 66405  53.1590 306.8468 0001172  91.9388 268.1755 15.49351189  4914
STARLINK-34840          
1 66406U 25257AC  25337.92117566  .00137322  00000+0  24309-2 0  9997
2 66406  53.1588 305.9143 0001368  70.7534 289.3623 15.49344183  4956
STARLINK-35686          
1 66407U 25257AD  25337.72833764  .00066205  00000+0  11866-2 0  9996
2 66407  53.1590 306.8443 0001554  87.7754 272.3433 15.49350535  4984
STARLINK-35679          
1 66408U 25257AE  25337.72798910  .00160851  00000+0  28317-2 0  9991
2 66408  53.1591 306.8432 0001312  94.7014 265.4145 15.49401960  4985
STARLINK-35617          
1 66422U 25259A   25337.91670139 -.02041801  00000+0 -46342-1 0  9996
2 66422  43.0004  98.9709 0001290 274.9440 343.4445 15.45738272  4866
STARLINK-35618          
1 66423U 25259B   25337.91670139 -.02081178  00000+0 -45159-1 0  9993
2 66423  43.0002  98.9549 0001595 270.1424 354.5986 15.47092663  4867
STARLINK-35588          
1 66424U 25259C   25337.91670139 -.02075678  00000+0 -42975-1 0  9995
2 66424  43.0002  98.9434 0001494 273.7558 355.9342 15.48416373  4866
STARLINK-35555          
1 66425U 25259D   25337.91670139 -.02087146  00000+0 -41231-1 0  9993
2 66425  43.0004  98.9329 0001430 273.0427   0.1650 15.49756158  4860
STARLINK-35589          
1 66426U 25259E   25337.91670139 -.01930415  00000+0 -36168-1 0  9992
2 66426  43.0003  98.9296 0001570 271.2526   4.1184 15.50971112  4865
STARLINK-35611          
1 66427U 25259F   25337.91670139 -.00199753  00000+0 -34759-2 0  9999
2 66427  43.0001  98.9234 0001607 275.2873   2.0319 15.50664734  4862
STARLINK-35610          
1 66428U 25259G   25337.91670139 -.00021653  00000+0 -36394-3 0  9991
2 66428  43.0003  98.9187 0001588 274.5334   4.7081 15.50604237  4861
STARLINK-35533          
1 66429U 25259H   25337.91670139 -.00153288  00000+0 -26510-2 0  9990
2 66429  43.0003  98.9130 0001598 272.4408   8.7091 15.50657211  4865
STARLINK-35470          
1 66430U 25259J   25337.91670139 -.00118005  00000+0 -20318-2 0  9990
2 66430  43.0001  98.9094 0001594 270.8187  12.2451 15.50637136  4860
STARLINK-35439          
1 66431U 25259K   25337.91670139 -.00169840  00000+0 -29431-2 0  9999
2 66431  43.0003  98.9036 0001650 265.3994  19.5847 15.50666097  4864
